[{"OBJECT_NAME":"STARLINK-30990","OBJECT_ID":"2023-186F","EPOCH":"2026-03-09T22:00:01.999584","MEAN_MOTION":15.23062436,"ECCENTRICITY":0.00016881,"INCLINATION":43.0018,"RA_OF_ASC_NODE":65.6206,"ARG_OF_PERICENTER":254.7996,"MEAN_ANOMALY":70.719,"EPHEMERIS_TYPE":0,"CLASSIFICATION_TYPE":"U","NORAD_CAT_ID":58478,"ELEMENT_SET_NO":999,"REV_AT_EPOCH":573,"BSTAR":0.050419085,"MEAN_MOTION_DOT":0.01311884,"MEAN_MOTION_DDOT":0},{"OBJECT_NAME":"CZ-4C R\/B","OBJECT_ID":"2022-069B","EPOCH":"2026-03-09T22:08:25.149120","MEAN_MOTION":15.31915595,"ECCENTRICITY":0.00471341,"INCLINATION":97.9961,"RA_OF_ASC_NODE":42.6953,"ARG_OF_PERICENTER":87.2467,"MEAN_ANOMALY":273.4166,"EPHEMERIS_TYPE":0,"CLASSIFICATION_TYPE":"U","NORAD_CAT_ID":52913,"ELEMENT_SET_NO":999,"REV_AT_EPOCH":20482,"BSTAR":0.00043675127,"MEAN_MOTION_DOT":0.00013855,"MEAN_MOTION_DDOT":0}]
